0 ONEWEB-0668
1 56711U 23068B   24144.65481942  .00000166  00000-0  39972-3 0  9999
2 56711  87.9119  18.9848 0002088  60.5967 299.5372 13.16592508 52493
0 ONEWEB-0676
1 56712U 23068C   24144.63489575  .00000075  00000-0  16138-3 0  9996
2 56712  87.9125  18.9928 0001387  96.5783 263.5506 13.16592898 52410
0 ONEWEB-0678
1 56714U 23068E   24144.74733965  .00000006  00000-0 -18087-4 0  9996
2 56714  87.9062  49.2962 0002068  90.8026 269.3341 13.15549294 50095
0 ONEWEB-0679
1 56715U 23068F   24144.68014970 -.00000004  00000-0 -44087-4 0  9996
2 56715  87.9124  18.9876 0001368  60.1874 299.9393 13.16591897 52449
0 ONEWEB-0680
1 56716U 23068G   24144.70644962  .00000084  00000-0  17332-3 0  9998
2 56716  87.9313  34.2026 0002171  58.9275 301.2071 13.21694447 51429
0 ONEWEB-0681
1 56717U 23068H   24144.64138859  .00000060  00000-0  11397-3 0  9994
2 56717  87.9311  34.1961 0000992 119.8389 240.2843 13.21826509 51400
0 ONEWEB-0682
1 56718U 23068J   24144.69742825 -.00000050  00000-0 -16725-3 0  9995
2 56718  87.9058  49.3491 0001877  59.2199 300.9116 13.15547918 50250
